CCSDS_OMM_VERS = 2.0
CREATION_DATE  = 
ORIGINATOR     = 

OBJECT_NAME    = SILVERSAT
OBJECT_ID      = 1998-067XV
CENTER_NAME    = EARTH
REF_FRAME      = TEME
TIME_SYSTEM    = UTC
MEAN_ELEMENT_THEORY = SGP/SGP4

EPOCH          = 2026-02-27T09:34:17.196960
MEAN_MOTION    = 15.68246517
ECCENTRICITY   = .00050658
INCLINATION    = 51.6259
RA_OF_ASC_NODE = 117.4322
ARG_OF_PERICENTER = 19.3067
MEAN_ANOMALY   = 340.8120

EPHEMERIS_TYPE = 0
CLASSIFICATION_TYPE = U
NORAD_CAT_ID   = 66909
ELEMENT_SET_NO = 999
REV_AT_EPOCH   = 1357
BSTAR          = .13107535E-2
MEAN_MOTION_DOT = .152013E-2
MEAN_MOTION_DDOT = 0

CCSDS_OMM_VERS = 2.0
CREATION_DATE  = 
ORIGINATOR     = 

OBJECT_NAME    = ISS OBJECT XW
OBJECT_ID      = 1998-067XW
CENTER_NAME    = EARTH
REF_FRAME      = TEME
TIME_SYSTEM    = UTC
MEAN_ELEMENT_THEORY = SGP/SGP4

EPOCH          = 2026-02-28T03:21:26.214336
MEAN_MOTION    = 15.65824407
ECCENTRICITY   = .0004709
INCLINATION    = 51.6250
RA_OF_ASC_NODE = 114.1264
ARG_OF_PERICENTER = 33.2789
MEAN_ANOMALY   = 326.8502

EPHEMERIS_TYPE = 0
CLASSIFICATION_TYPE = U
NORAD_CAT_ID   = 66910
ELEMENT_SET_NO = 999
REV_AT_EPOCH   = 1368
BSTAR          = .10758E-2
MEAN_MOTION_DOT = .112427E-2
MEAN_MOTION_DDOT = 0

CCSDS_OMM_VERS = 2.0
CREATION_DATE  = 
ORIGINATOR     = 

OBJECT_NAME    = ISS OBJECT XX
OBJECT_ID      = 1998-067XX
CENTER_NAME    = EARTH
REF_FRAME      = TEME
TIME_SYSTEM    = UTC
MEAN_ELEMENT_THEORY = SGP/SGP4

EPOCH          = 2026-02-28T04:14:04.585344
MEAN_MOTION    = 15.70701974
ECCENTRICITY   = .0006724
INCLINATION    = 51.6224
RA_OF_ASC_NODE = 112.8607
ARG_OF_PERICENTER = 29.6509
MEAN_ANOMALY   = 330.4869

EPHEMERIS_TYPE = 0
CLASSIFICATION_TYPE = U
NORAD_CAT_ID   = 66911
ELEMENT_SET_NO = 999
REV_AT_EPOCH   = 1369
BSTAR          = .14258E-2
MEAN_MOTION_DOT = .18393E-2
MEAN_MOTION_DDOT = 0

CCSDS_OMM_VERS = 2.0
CREATION_DATE  = 
ORIGINATOR     = 

OBJECT_NAME    = ISS OBJECT XY
OBJECT_ID      = 1998-067XY
CENTER_NAME    = EARTH
REF_FRAME      = TEME
TIME_SYSTEM    = UTC
MEAN_ELEMENT_THEORY = SGP/SGP4

EPOCH          = 2026-02-28T04:20:43.979712
MEAN_MOTION    = 15.61802654
ECCENTRICITY   = .0002682
INCLINATION    = 51.6272
RA_OF_ASC_NODE = 115.1646
ARG_OF_PERICENTER = 38.4897
MEAN_ANOMALY   = 321.6287

EPHEMERIS_TYPE = 0
CLASSIFICATION_TYPE = U
NORAD_CAT_ID   = 66912
ELEMENT_SET_NO = 999
REV_AT_EPOCH   = 1366
BSTAR          = .89586E-3
MEAN_MOTION_DOT = .7941E-3
MEAN_MOTION_DDOT = 0

CCSDS_OMM_VERS = 2.0
CREATION_DATE  = 
ORIGINATOR     = 

OBJECT_NAME    = ISS OBJECT XZ
OBJECT_ID      = 1998-067XZ
CENTER_NAME    = EARTH
REF_FRAME      = TEME
TIME_SYSTEM    = UTC
MEAN_ELEMENT_THEORY = SGP/SGP4

EPOCH          = 2026-02-28T04:39:34.636032
MEAN_MOTION    = 15.50977901
ECCENTRICITY   = .0009642
INCLINATION    = 51.6312
RA_OF_ASC_NODE = 119.0010
ARG_OF_PERICENTER = 154.2644
MEAN_ANOMALY   = 205.8827

EPHEMERIS_TYPE = 0
CLASSIFICATION_TYPE = U
NORAD_CAT_ID   = 67683
ELEMENT_SET_NO = 999
REV_AT_EPOCH   = 331
BSTAR          = .58592E-3
MEAN_MOTION_DOT = .34365E-3
MEAN_MOTION_DDOT = 0

CCSDS_OMM_VERS = 2.0
CREATION_DATE  = 
ORIGINATOR     = 

OBJECT_NAME    = GXIBA-1
OBJECT_ID      = 1998-067YA
CENTER_NAME    = EARTH
REF_FRAME      = TEME
TIME_SYSTEM    = UTC
MEAN_ELEMENT_THEORY = SGP/SGP4

EPOCH          = 2026-02-28T04:18:38.316096
MEAN_MOTION    = 15.52688013
ECCENTRICITY   = .001107
INCLINATION    = 51.6304
RA_OF_ASC_NODE = 118.9057
ARG_OF_PERICENTER = 145.1082
MEAN_ANOMALY   = 215.0635

EPHEMERIS_TYPE = 0
CLASSIFICATION_TYPE = U
NORAD_CAT_ID   = 67684
ELEMENT_SET_NO = 999
REV_AT_EPOCH   = 331
BSTAR          = .10978E-2
MEAN_MOTION_DOT = .6926E-3
MEAN_MOTION_DDOT = 0

CCSDS_OMM_VERS = 2.0
CREATION_DATE  = 
ORIGINATOR     = 

OBJECT_NAME    = CORAL
OBJECT_ID      = 1998-067YB
CENTER_NAME    = EARTH
REF_FRAME      = TEME
TIME_SYSTEM    = UTC
MEAN_ELEMENT_THEORY = SGP/SGP4

EPOCH          = 2026-02-28T04:35:56.137344
MEAN_MOTION    = 15.51246612
ECCENTRICITY   = .0011633
INCLINATION    = 51.6315
RA_OF_ASC_NODE = 118.9850
ARG_OF_PERICENTER = 150.2399
MEAN_ANOMALY   = 209.9254

EPHEMERIS_TYPE = 0
CLASSIFICATION_TYPE = U
NORAD_CAT_ID   = 67685
ELEMENT_SET_NO = 999
REV_AT_EPOCH   = 331
BSTAR          = .67815E-3
MEAN_MOTION_DOT = .40299E-3
MEAN_MOTION_DDOT = 0

CCSDS_OMM_VERS = 2.0
CREATION_DATE  = 
ORIGINATOR     = 

OBJECT_NAME    = ISS OBJECT YC
OBJECT_ID      = 1998-067YC
CENTER_NAME    = EARTH
REF_FRAME      = TEME
TIME_SYSTEM    = UTC
MEAN_ELEMENT_THEORY = SGP/SGP4

EPOCH          = 2026-02-27T11:31:37.085376
MEAN_MOTION    = 15.51530870
ECCENTRICITY   = .00076547
INCLINATION    = 51.6315
RA_OF_ASC_NODE = 122.4856
ARG_OF_PERICENTER = 116.6390
MEAN_ANOMALY   = 243.5385

EPHEMERIS_TYPE = 0
CLASSIFICATION_TYPE = U
NORAD_CAT_ID   = 67686
ELEMENT_SET_NO = 999
REV_AT_EPOCH   = 320
BSTAR          = .82192106E-3
MEAN_MOTION_DOT = .49428E-3
MEAN_MOTION_DDOT = 0

CCSDS_OMM_VERS = 2.0
CREATION_DATE  = 
ORIGINATOR     = 

OBJECT_NAME    = LEOPARD
OBJECT_ID      = 1998-067YD
CENTER_NAME    = EARTH
REF_FRAME      = TEME
TIME_SYSTEM    = UTC
MEAN_ELEMENT_THEORY = SGP/SGP4

EPOCH          = 2026-02-28T04:37:32.437920
MEAN_MOTION    = 15.51105167
ECCENTRICITY   = .0007698
INCLINATION    = 51.6314
RA_OF_ASC_NODE = 118.9928
ARG_OF_PERICENTER = 122.6501
MEAN_ANOMALY   = 237.5231

EPHEMERIS_TYPE = 0
CLASSIFICATION_TYPE = U
NORAD_CAT_ID   = 67687
ELEMENT_SET_NO = 999
REV_AT_EPOCH   = 323
BSTAR          = .60918E-3
MEAN_MOTION_DOT = .35896E-3
MEAN_MOTION_DDOT = 0

CCSDS_OMM_VERS = 2.0
CREATION_DATE  = 
ORIGINATOR     = 

OBJECT_NAME    = ISS OBJECT YE
OBJECT_ID      = 1998-067YE
CENTER_NAME    = EARTH
REF_FRAME      = TEME
TIME_SYSTEM    = UTC
MEAN_ELEMENT_THEORY = SGP/SGP4

EPOCH          = 2026-02-27T10:00:31.918176
MEAN_MOTION    = 15.51362636
ECCENTRICITY   = .00076193
INCLINATION    = 51.6320
RA_OF_ASC_NODE = 122.8134
ARG_OF_PERICENTER = 117.1331
MEAN_ANOMALY   = 243.0436

EPHEMERIS_TYPE = 0
CLASSIFICATION_TYPE = U
NORAD_CAT_ID   = 67688
ELEMENT_SET_NO = 999
REV_AT_EPOCH   = 311
BSTAR          = .73241565E-3
MEAN_MOTION_DOT = .43696E-3
MEAN_MOTION_DDOT = 0

CCSDS_OMM_VERS = 2.0
CREATION_DATE  = 
ORIGINATOR     = 

OBJECT_NAME    = CREW DRAGON 12
OBJECT_ID      = 2026-031A
CENTER_NAME    = EARTH
REF_FRAME      = TEME
TIME_SYSTEM    = UTC
MEAN_ELEMENT_THEORY = SGP/SGP4

EPOCH          = 2026-02-27T21:31:51.403008
MEAN_MOTION    = 15.48349372
ECCENTRICITY   = .0008322
INCLINATION    = 51.6325
RA_OF_ASC_NODE = 120.7666
ARG_OF_PERICENTER = 140.4026
MEAN_ANOMALY   = 219.7571

EPHEMERIS_TYPE = 0
CLASSIFICATION_TYPE = U
NORAD_CAT_ID   = 67796
ELEMENT_SET_NO = 999
REV_AT_EPOCH   = 55455
BSTAR          = .22726E-3
MEAN_MOTION_DOT = .1182E-3
MEAN_MOTION_DDOT = 0

