SILVERSAT               
1 66909U 98067XV  26058.39881015  .00152013  00000+0  13108-2 0  9992
2 66909  51.6259 117.4322 0005065  19.3067 340.8120 15.68246517 13571
ISS OBJECT XW           
1 66910U 98067XW  26059.13988674  .00112427  00000+0  10758-2 0  9999
2 66910  51.6250 114.1264 0004709  33.2789 326.8502 15.65824407 13680
ISS OBJECT XX           
1 66911U 98067XX  26059.17644196  .00183930  00000+0  14258-2 0  9998
2 66911  51.6224 112.8607 0006724  29.6509 330.4869 15.70701974 13693
ISS OBJECT XY           
1 66912U 98067XY  26059.18106458  .00079410  00000+0  89586-3 0  9998
2 66912  51.6272 115.1646 0002682  38.4897 321.6287 15.61802654 13663
ISS OBJECT XZ           
1 67683U 98067XZ  26059.19415088  .00034365  00000+0  58592-3 0  9990
2 67683  51.6312 119.0010 0009642 154.2644 205.8827 15.50977901  3312
GXIBA-1                 
1 67684U 98067YA  26059.17961014  .00069260  00000+0  10978-2 0  9991
2 67684  51.6304 118.9057 0011070 145.1082 215.0635 15.52688013  3311
CORAL                   
1 67685U 98067YB  26059.19162196  .00040299  00000+0  67815-3 0  9992
2 67685  51.6315 118.9850 0011633 150.2399 209.9254 15.51246612  3311
ISS OBJECT YC           
1 67686U 98067YC  26058.48029034  .00049428  00000+0  82192-3 0  9995
2 67686  51.6315 122.4856 0007654 116.6390 243.5385 15.51530870  3202
LEOPARD                 
1 67687U 98067YD  26059.19273655  .00035896  00000+0  60918-3 0  9991
2 67687  51.6314 118.9928 0007698 122.6501 237.5231 15.51105167  3234
ISS OBJECT YE           
1 67688U 98067YE  26058.41703609  .00043696  00000+0  73242-3 0  9994
2 67688  51.6320 122.8134 0007619 117.1331 243.0436 15.51362636  3110
CREW DRAGON 12          
1 67796U 26031A   26058.89712272  .00011820  00000+0  22726-3 0  9999
2 67796  51.6325 120.7666 0008322 140.4026 219.7571 15.48349372554551
